NUSAT-49 (KLARA DAN VO*)
1 60500U 24149AJ  26068.79810190  .00012912  00000+0  43568-3 0  9991
2 60500  97.3807 150.7380 0001132 286.7761  73.3356 15.30828857 86935
STARLINK-32634          
1 62313U 24239N   26068.60414347  .00027218  00000+0  92654-3 0  9994
2 62313  53.1571 181.3320 0000933  79.6419 280.4687 15.30241225 69553
