[{"OBJECT_NAME":"NUSAT-49 (KLARA DAN VON NEUMANN)","OBJECT_ID":"2024-149AJ","EPOCH":"2026-03-09T19:09:16.004160","MEAN_MOTION":15.30828857,"ECCENTRICITY":0.00011321,"INCLINATION":97.3807,"RA_OF_ASC_NODE":150.738,"ARG_OF_PERICENTER":286.7761,"MEAN_ANOMALY":73.3356,"EPHEMERIS_TYPE":0,"CLASSIFICATION_TYPE":"U","NORAD_CAT_ID":60500,"ELEMENT_SET_NO":999,"REV_AT_EPOCH":8693,"BSTAR":0.00043568345,"MEAN_MOTION_DOT":0.00012912,"MEAN_MOTION_DDOT":0},{"OBJECT_NAME":"STARLINK-32634","OBJECT_ID":"2024-239N","EPOCH":"2026-03-09T14:29:57.995808","MEAN_MOTION":15.30241225,"ECCENTRICITY":9.33e-5,"INCLINATION":53.1571,"RA_OF_ASC_NODE":181.332,"ARG_OF_PERICENTER":79.6419,"MEAN_ANOMALY":280.4687,"EPHEMERIS_TYPE":0,"CLASSIFICATION_TYPE":"U","NORAD_CAT_ID":62313,"ELEMENT_SET_NO":999,"REV_AT_EPOCH":6955,"BSTAR":0.00092654,"MEAN_MOTION_DOT":0.00027218,"MEAN_MOTION_DDOT":0}]
